CTC2_L_00115016-03
1 17286U 22334KR  26037.47791667  .00000000  00000+0  00000-0 0  9992
2 17286  75.0000 180.0000 0000000   0.0000   0.0000 14.51731110    12
CTC2_L_00115016-04
1 17287U 26454CP  26037.47791667  .00000000  00000+0  00000-0 0  9990
2 17287  75.0000 180.0000 0000000   0.0000  90.0000 14.51731110    12
CTC2_L_00115017-01
1 17288U 25059DM  26037.47791667  .00000000  00000+0  00000-0 0  9991
2 17288  75.0000 192.0000 0000000   0.0000 192.0000 14.51731110    19
CTC2_L_00115017-02
1 17289U 26017GW  26037.47791667  .00000000  00000+0  00000-0 0  9997
2 17289  75.0000 192.0000 0000000   0.0000 282.0000 14.51731110    10
CTC2_L_00115017-03
1 17290U 23816OC  26037.47791667  .00000000  00000+0  00000-0 0  9993
2 17290  75.0000 192.0000 0000000   0.0000  12.0000 14.51731110    13
CTC2_L_00115017-04
1 17291U 25615JV  26037.47791667  .00000000  00000+0  00000-0 0  9993
2 17291  75.0000 192.0000 0000000   0.0000 102.0000 14.51731110    14
CTC2_L_00115018-01
1 17292U 24945SH  26037.47791667  .00000000  00000+0  00000-0 0  9999
2 17292  75.0000 204.0000 0000000   0.0000 204.0000 14.51731110    12
CTC2_L_00115018-02
1 17293U 22775FB  26037.47791667  .00000000  00000+0  00000-0 0  9999
2 17293  75.0000 204.0000 0000000   0.0000 294.0000 14.51731110    12
CTC2_L_00115018-03
1 17294U 25701GR  26037.47791667  .00000000  00000+0  00000-0 0  9992
2 17294  75.0000 204.0000 0000000   0.0000  24.0000 14.51731110    14
CTC2_L_00115018-04
1 17295U 23231AZ  26037.47791667  .00000000  00000+0  00000-0 0  9999
2 17295  75.0000 204.0000 0000000   0.0000 114.0000 14.51731110    15
CTC2_L_00115019-01
1 17296U 24113LO  26037.47791667  .00000000  00000+0  00000-0 0  9990
2 17296  75.0000 216.0000 0000000   0.0000 216.0000 14.51731110    12
CTC2_L_00115019-02
1 17297U 23885FB  26037.47791667  .00000000  00000+0  00000-0 0  9996
2 17297  75.0000 216.0000 0000000   0.0000 306.0000 14.51731110    13
CTC2_L_00115019-03
1 17298U 26256MQ  26037.47791667  .00000000  00000+0  00000-0 0  9992
2 17298  75.0000 216.0000 0000000   0.0000  36.0000 14.51731110    14
CTC2_L_00115019-04
1 17299U 24629VU  26037.47791667  .00000000  00000+0  00000-0 0  9995
2 17299  75.0000 216.0000 0000000   0.0000 126.0000 14.51731110    15
CTC2_L_00115020-01
1 17300U 22332AP  26037.47791667  .00000000  00000+0  00000-0 0  9997
2 17300  75.0000 228.0000 0000000   0.0000 228.0000 14.51731110    14
CTC2_L_00115020-02
1 17301U 22180EY  26037.47791667  .00000000  00000+0  00000-0 0  9999
2 17301  75.0000 228.0000 0000000   0.0000 318.0000 14.51731110    15
CTC2_L_00115020-03
1 17302U 22025LD  26037.47791667  .00000000  00000+0  00000-0 0  9998
2 17302  75.0000 228.0000 0000000   0.0000  48.0000 14.51731110    16
CTC2_L_00115020-04
1 17303U 22215YM  26037.47791667  .00000000  00000+0  00000-0 0  9990
2 17303  75.0000 228.0000 0000000   0.0000 138.0000 14.51731110    17
CTC2_L_00115021-01
1 17304U 22949WM  26037.47791667  .00000000  00000+0  00000-0 0  9995
2 17304  75.0000 240.0000 0000000   0.0000 240.0000 14.51731110    16
CTC2_L_00115021-02
1 17305U 23875SF  26037.47791667  .00000000  00000+0  00000-0 0  9995
2 17305  75.0000 240.0000 0000000   0.0000 330.0000 14.51731110    17
CTC2_L_00115021-03
1 17306U 24384UA  26037.47791667  .00000000  00000+0  00000-0 0  9992
2 17306  75.0000 240.0000 0000000   0.0000  60.0000 14.51731110    18
CTC2_L_00115021-04
1 17307U 24323AX  26037.47791667  .00000000  00000+0  00000-0 0  9996
2 17307  75.0000 240.0000 0000000   0.0000 150.0000 14.51731110    19
CTC2_L_00115022-01
1 17308U 22169PJ  26037.47791667  .00000000  00000+0  00000-0 0  9993
2 17308  75.0000 252.0000 0000000   0.0000 252.0000 14.51731110    16
CTC2_L_00115022-02
1 17309U 22906XH  26037.47791667  .00000000  00000+0  00000-0 0  9993
2 17309  75.0000 252.0000 0000000   0.0000 342.0000 14.51731110    17
CTC2_L_00115022-03
1 17310U 25735TB  26037.47791667  .00000000  00000+0  00000-0 0  9998
2 17310  75.0000 252.0000 0000000   0.0000  72.0000 14.51731110    19
CTC2_L_00115022-04
1 17311U 23844ZX  26037.47791667  .00000000  00000+0  00000-0 0  9998
2 17311  75.0000 252.0000 0000000   0.0000 162.0000 14.51731110    10
CTC2_L_00115023-01
1 17312U 23236DO  26037.47791667  .00000000  00000+0  00000-0 0  9994
2 17312  75.0000 264.0000 0000000   0.0000 264.0000 14.51731110    17
CTC2_L_00115023-02
1 17313U 22412WT  26037.47791667  .00000000  00000+0  00000-0 0  9990
2 17313  75.0000 264.0000 0000000   0.0000 354.0000 14.51731110    18
CTC2_L_00115023-03
1 17314U 26059KJ  26037.47791667  .00000000  00000+0  00000-0 0  9992
2 17314  75.0000 264.0000 0000000   0.0000  84.0000 14.51731110    19
CTC2_L_00115023-04
1 17315U 24281A   26037.47791667  .00000000  00000+0  00000-0 0  9998
2 17315  75.0000 264.0000 0000000   0.0000 174.0000 14.51731110    10
CTC2_L_00115024-01
1 17316U 24520TQ  26037.47791667  .00000000  00000+0  00000-0 0  9995
2 17316  75.0000 276.0000 0000000   0.0000 276.0000 14.51731110    17
CTC2_L_00115024-02
1 17317U 25294FY  26037.47791667  .00000000  00000+0  00000-0 0  9995
2 17317  75.0000 276.0000 0000000   0.0000   6.0000 14.51731110    19
CTC2_L_00115024-03
1 17318U 23255ZW  26037.47791667  .00000000  00000+0  00000-0 0  9991
2 17318  75.0000 276.0000 0000000   0.0000  96.0000 14.51731110    19
CTC2_L_00115024-04
1 17319U 25594GW  26037.47791667  .00000000  00000+0  00000-0 0  9990
2 17319  75.0000 276.0000 0000000   0.0000 186.0000 14.51731110    10
CTC2_L_00115025-01
1 17320U 25753QP  26037.47791667  .00000000  00000+0  00000-0 0  9999
2 17320  75.0000 288.0000 0000000   0.0000 288.0000 14.51731110    18
CTC2_L_00115025-02
1 17321U 24160QM  26037.47791667  .00000000  00000+0  00000-0 0  9991
2 17321  75.0000 288.0000 0000000   0.0000  18.0000 14.51731110    10
CTC2_L_00115025-03
1 17322U 25912WD  26037.47791667  .00000000  00000+0  00000-0 0  9998
2 17322  75.0000 288.0000 0000000   0.0000 108.0000 14.51731110    11
CTC2_L_00115025-04
1 17323U 23820NO  26037.47791667  .00000000  00000+0  00000-0 0  9995
2 17323  75.0000 288.0000 0000000   0.0000 198.0000 14.51731110    11
CTC2_L_00115026-01
1 17324U 26347SU  26037.47791667  .00000000  00000+0  00000-0 0  9993
2 17324  75.0000 300.0000 0000000   0.0000 300.0000 14.51731110    12
CTC2_L_00115026-02
1 17325U 24296AH  26037.47791667  .00000000  00000+0  00000-0 0  9995
2 17325  75.0000 300.0000 0000000   0.0000  30.0000 14.51731110    13
CTC2_L_00115026-03
1 17326U 24572DN  26037.47791667  .00000000  00000+0  00000-0 0  9993
2 17326  75.0000 300.0000 0000000   0.0000 120.0000 14.51731110    14
CTC2_L_00115026-04
1 17327U 26869AQ  26037.47791667  .00000000  00000+0  00000-0 0  9995
2 17327  75.0000 300.0000 0000000   0.0000 210.0000 14.51731110    15
CTC2_L_00115027-01
1 17328U 24724QN  26037.47791667  .00000000  00000+0  00000-0 0  9994
2 17328  75.0000 312.0000 0000000   0.0000 312.0000 14.51731110    12
CTC2_L_00115027-02
1 17329U 23711ZS  26037.47791667  .00000000  00000+0  00000-0 0  9990
2 17329  75.0000 312.0000 0000000   0.0000  42.0000 14.51731110    13
CTC2_L_00115027-03
1 17330U 24168GX  26037.47791667  .00000000  00000+0  00000-0 0  9999
2 17330  75.0000 312.0000 0000000   0.0000 132.0000 14.51731110    15
CTC2_L_00115027-04
1 17331U 23128DX  26037.47791667  .00000000  00000+0  00000-0 0  9995
2 17331  75.0000 312.0000 0000000   0.0000 222.0000 14.51731110    16
CTC2_L_00115028-01
1 17332U 23718AZ  26037.47791667  .00000000  00000+0  00000-0 0  9991
2 17332  75.0000 324.0000 0000000   0.0000 324.0000 14.51731110    13
CTC2_L_00115028-02
1 17333U 24578GA  26037.47791667  .00000000  00000+0  00000-0 0  9997
2 17333  75.0000 324.0000 0000000   0.0000  54.0000 14.51731110    14
CTC2_L_00115028-03
1 17334U 24125QS  26037.47791667  .00000000  00000+0  00000-0 0  9996
2 17334  75.0000 324.0000 0000000   0.0000 144.0000 14.51731110    15
CTC2_L_00115028-04
1 17335U 26797MA  26037.47791667  .00000000  00000+0  00000-0 0  9994
2 17335  75.0000 324.0000 0000000   0.0000 234.0000 14.51731110    16
CTC2_L_00115029-01
1 17336U 26386UO  26037.47791667  .00000000  00000+0  00000-0 0  9999
2 17336  75.0000 336.0000 0000000   0.0000 336.0000 14.51731110    13
CTC2_L_00115029-02
1 17337U 25072TL  26037.47791667  .00000000  00000+0  00000-0 0  9991
2 17337  75.0000 336.0000 0000000   0.0000  66.0000 14.51731110    14
CTC2_L_00115029-03
1 17338U 24728AB  26037.47791667  .00000000  00000+0  00000-0 0  9999
2 17338  75.0000 336.0000 0000000   0.0000 156.0000 14.51731110    15
CTC2_L_00115029-04
1 17339U 22767T   26037.47791667  .00000000  00000+0  00000-0 0  9991
2 17339  75.0000 336.0000 0000000   0.0000 246.0000 14.51731110    16
CTC2_L_00115030-01
1 17340U 22059BA  26037.47791667  .00000000  00000+0  00000-0 0  9997
2 17340  75.0000 348.0000 0000000   0.0000 348.0000 14.51731110    14
CTC2_L_00115030-02
1 17341U 23848CA  26037.47791667  .00000000  00000+0  00000-0 0  9995
2 17341  75.0000 348.0000 0000000   0.0000  78.0000 14.51731110    15
CTC2_L_00115030-03
1 17342U 22291SE  26037.47791667  .00000000  00000+0  00000-0 0  9997
2 17342  75.0000 348.0000 0000000   0.0000 168.0000 14.51731110    16
CTC2_L_00115030-04
1 17343U 23302OW  26037.47791667  .00000000  00000+0  00000-0 0  9992
2 17343  75.0000 348.0000 0000000   0.0000 258.0000 14.51731110    17
